NUSAT-48 (HENRIETTA LE*)
1 60498U 24149AG  26068.80506098  .00012988  00000+0  45212-3 0  9999
2 60498  97.3923 150.8264 0002754 263.3026  96.7901 15.29812597 86946
STARLINK-35409          
1 66196U 25243V   26068.75235970  .00013517  00000+0  46772-3 0  9999
2 66196  53.1592 244.9387 0000994 134.1816 225.9266 15.30196191 20660
